<?xml version="1.0" encoding="UTF-8"?><kml xmlns="http://earth.google.com/kml/2.1"><Document>   <name>VPro Plot Locations</name>
<Style id="a"><IconStyle><Icon><href>http://maps.google.com/mapfiles/ms/icons/red-dot.png</href></Icon></IconStyle></Style>
   <Placemark>       <name>108050</name><styleUrl>#a</styleUrl>      <Point>         <coordinates>-137.0083, 60.8625,0</coordinates>      </Point>      <description><![CDATA[HmYc - Mountain Heather (plots are Mhwhp).]]></description>   </Placemark>
   <Placemark>       <name>1976021</name><styleUrl>#a</styleUrl>      <Point>         <coordinates>-124.421, 55.18056,0</coordinates>      </Point>      <description><![CDATA[Sw - Currant - Horsetail.]]></description>   </Placemark>
   <Placemark>       <name>1976025</name><styleUrl>#a</styleUrl>      <Point>         <coordinates>-128.5, 55.0123,0</coordinates>      </Point>      <description><![CDATA[Sw - Currant - Horsetail.]]></description>   </Placemark>
   <Placemark>       <name>202050</name><styleUrl>#a</styleUrl>      <Point>         <coordinates>-128, 52,0</coordinates>      </Point>      <description><![CDATA[Zonal.]]></description>   </Placemark>
   <Placemark>       <name>406250</name><styleUrl>#a</styleUrl>      <Point>         <coordinates>-128, 58,0</coordinates>      </Point>      <description><![CDATA[Sw - Currant - Horsetail.]]></description>   </Placemark>
   <Placemark>       <name>5760454</name><styleUrl>#a</styleUrl>      <Point>         <coordinates>-120, 55,0</coordinates>      </Point>      <description><![CDATA[MATURING STAND OF PICE-ENG ON SLOPE.]]></description>   </Placemark>
   <Placemark>       <name>5760463</name><styleUrl>#a</styleUrl>      <Point>         <coordinates>-120, 54,0</coordinates>      </Point>      <description><![CDATA[TA-ES SERAL SUCCESSION TO ES ON.]]></description>   </Placemark>
   <Placemark>       <name>5760808</name><styleUrl>#a</styleUrl>      <Point>         <coordinates>-120, 54,0</coordinates>      </Point>      <description><![CDATA[MATURE BS,S ON LACUSTRINE DEPOSIT WITH NE ASPECT.]]></description>   </Placemark>
   <Placemark>       <name>579279</name><styleUrl>#a</styleUrl>      <Point>         <coordinates>-133.0417, 77.75,0</coordinates>      </Point>      <description><![CDATA[alpine heath with Krummhotz on H, ridgetop.]]></description>   </Placemark>
   <Placemark>       <name>8229723</name><styleUrl>#a</styleUrl>      <Point>         <coordinates>-128.3462, 54.58833,0</coordinates>      </Point>      <description><![CDATA[Picea glauca - Abies lasiocarpa - Alnus viridis ssp. sinuata - Salix sp. - mosses on organic.]]></description>   </Placemark>
   <Placemark>       <name>8428935</name><styleUrl>#a</styleUrl>      <Point>         <coordinates>-123, 56,0</coordinates>      </Point>      <description><![CDATA[Picea engelmannii x glauca - Populus balsamifera - Ribes triste - Ribes lacustre - Equisetum arvense - Mitella nuda - Ptilium crista-castrensis - Hylocomium splendens - Mnium sp..]]></description>   </Placemark>
   <Placemark>       <name>8428942</name><styleUrl>#a</styleUrl>      <Point>         <coordinates>-122, 56,0</coordinates>      </Point>      <description><![CDATA[Picea sp. - Equisetum sp..]]></description>   </Placemark>
   <Placemark>       <name>8428963</name><styleUrl>#a</styleUrl>      <Point>         <coordinates>-123, 56,0</coordinates>      </Point>      <description><![CDATA[Picea glauca - Equisetum sp..]]></description>   </Placemark>
   <Placemark>       <name>8428970</name><styleUrl>#a</styleUrl>      <Point>         <coordinates>-123, 56,0</coordinates>      </Point>      <description><![CDATA[Picea engelmannii - Abies lasiocarpa - Ribes sp. - Equisetum sp. - Polytrichum sp. - Pleurozium schreberi.]]></description>   </Placemark>
   <Placemark>       <name>8428975</name><styleUrl>#a</styleUrl>      <Point>         <coordinates>-123, 56,0</coordinates>      </Point>      <description><![CDATA[Picea engelmannii x glauca - (Abies lasiocarpa) - Ribes sp. - Equisetum sp. - Pleurozium schreberi - (Barbilophozia sp.).]]></description>   </Placemark>
   <Placemark>       <name>8529415</name><styleUrl>#a</styleUrl>      <Point>         <coordinates>-121, 55,0</coordinates>      </Point>      <description><![CDATA[Picea glauca - Lonicera involucrata - Equisetum arvense - Rubus pedatus - Mnium sp..]]></description>   </Placemark>
   <Placemark>       <name>8529649</name><styleUrl>#a</styleUrl>      <Point>         <coordinates>-121, 56,0</coordinates>      </Point>      <description><![CDATA[Picea glauca - Betula papyrifera - Viburnum edule - Rosa acicularis - Lonicera involucrata - Equisetum sylvaticum - Mitella nuda - Linnaea borealis - Hylocomium splendens - Marchantia polymorpha.]]></description>   </Placemark>
   <Placemark>       <name>8529670</name><styleUrl>#a</styleUrl>      <Point>         <coordinates>-122, 57,0</coordinates>      </Point>      <description><![CDATA[Picea glauca - Salix sp. - Betula nana - Shepherdia canadensis - Leymus innovatus - Platanthera obtusata - Equisetum sp. - Tomentypnum nitens - Aulacomnium palustre - Hylocomium splendens - Peltigera aphthosa.]]></description>   </Placemark>
   <Placemark>       <name>8529675</name><styleUrl>#a</styleUrl>      <Point>         <coordinates>-123, 57,0</coordinates>      </Point>      <description><![CDATA[Picea engelmannii x glauca - Salix sp. - Rubus pubescens - Aconitum delphiniifolium - Equisetum sp. - Linnaea borealis - Platanthera obtusata - Hylocomium splendens - Aulacomnium palustre.]]></description>   </Placemark>
   <Placemark>       <name>8529676</name><styleUrl>#a</styleUrl>      <Point>         <coordinates>-123, 57,0</coordinates>      </Point>      <description><![CDATA[Picea engelmannii x glauca - Populus balsamifera - Alnus incana - Equisetum arvense - Linnaea borealis - Mertensia paniculata - Epilobium angustifolium - Leymus innovatus - Platanthera obtusata - Orthilia secunda - Pyrola chlorantha.]]></description>   </Placemark>
   <Placemark>       <name>8630146</name><styleUrl>#a</styleUrl>      <Point>         <coordinates>-121, 57,0</coordinates>      </Point>      <description><![CDATA[Picea glauca - Salix bebbiana - Cornus canadensis - Calamagrostis sp. - Pleurozium schreberi.]]></description>   </Placemark>
   <Placemark>       <name>9003002</name><styleUrl>#a</styleUrl>      <Point>         <coordinates>-123, 56,0</coordinates>      </Point>      <description><![CDATA[Older floodplain site - about 20yrs with good conifer regen.]]></description>   </Placemark>
   <Placemark>       <name>9003043</name><styleUrl>#a</styleUrl>      <Point>         <coordinates>-123, 56,0</coordinates>      </Point>      <description><![CDATA[subhygric mature forested floodplain.]]></description>   </Placemark>
   <Placemark>       <name>9003104</name><styleUrl>#a</styleUrl>      <Point>         <coordinates>-124, 56,0</coordinates>      </Point>      <description><![CDATA[Moist creek bottom - horesetail site.]]></description>   </Placemark>
   <Placemark>       <name>961167</name><styleUrl>#a</styleUrl>      <Point>         <coordinates>-125, 54,0</coordinates>      </Point>      <description><![CDATA[White spruce-cottonwood-twinberry-horsetail.]]></description>   </Placemark>
   <Placemark>       <name>9624781</name><styleUrl>#a</styleUrl>      <Point>         <coordinates>-121, 54,0</coordinates>      </Point>      <description><![CDATA[SPRUCE-MACKENZIE'S WILLOW-HORSETAIL.]]></description>   </Placemark>
   <Placemark>       <name>9624804</name><styleUrl>#a</styleUrl>      <Point>         <coordinates>-121, 54,0</coordinates>      </Point>      <description><![CDATA[SPRUCE-ASPEN-COTTONWOOD-TWINBERRY.]]></description>   </Placemark>
   <Placemark>       <name>L153</name><styleUrl>#a</styleUrl>      <Point>         <coordinates>-125, 59,0</coordinates>      </Point>      <description><![CDATA[Sw - Currant - Horsetail.]]></description>   </Placemark>
   <Placemark>       <name>L185</name><styleUrl>#a</styleUrl>      <Point>         <coordinates>-124, 59,0</coordinates>      </Point>      <description><![CDATA[Sw - Currant - Horsetail.]]></description>   </Placemark>
   <Placemark>       <name>QCIL6</name><styleUrl>#a</styleUrl>      <Point>         <coordinates>-131, 52,0</coordinates>      </Point>      <description><![CDATA[just below alpine, MH zone.]]></description>   </Placemark>
   <Placemark>       <name>QCIQ10</name><styleUrl>#a</styleUrl>      <Point>         <coordinates>-132, 53,0</coordinates>      </Point>      <description><![CDATA[TSME - parkland.]]></description>   </Placemark>
   <Placemark>       <name>QCIQ14</name><styleUrl>#a</styleUrl>      <Point>         <coordinates>-132, 53,0</coordinates>      </Point>      <description><![CDATA[CHNO - TSME / CAST 'enchanted forest'.]]></description>   </Placemark>
   <Placemark>       <name>R0126</name><styleUrl>#a</styleUrl>      <Point>         <coordinates>-123, 57,0</coordinates>      </Point>      <description><![CDATA[Sw - Currant - Horsetail.]]></description>   </Placemark>
   <Placemark>       <name>R3027</name><styleUrl>#a</styleUrl>      <Point>         <coordinates>-125, 57,0</coordinates>      </Point>      <description><![CDATA[Sw - Currant - Horsetail.]]></description>   </Placemark>
   <Placemark>       <name>R3039</name><styleUrl>#a</styleUrl>      <Point>         <coordinates>-133.0417, 65.43333,0</coordinates>      </Point>      <description><![CDATA[Sw - Currant - Horsetail.]]></description>   </Placemark>
</Document></kml>
